TIANMU-1 07             
1 57399U 23101A   26065.57454230  .00008352  00000+0  29795-3 0  9991
2 57399  97.2728 118.5929 0004609 142.4105 217.7458 15.29118809145964
STARLINK-30915          
1 58380U 23178G   26068.93187363  .00016525  00000+0  56105-3 0  9995
2 58380  53.1565 270.1940 0000968  62.1565 297.9534 15.30645879131150
